{
    "CCSDS_OMM_VERS": "3.0",
    "COMMENT": "GENERATED VIA SPACE-TRACK.ORG API",
    "CREATION_DATE": "2025-11-16T23:15:52",
    "ORIGINATOR": "18 SPCS",
    "OBJECT_NAME": "BEIDOU 5",
    "OBJECT_ID": "2010-036A",
    "CENTER_NAME": "EARTH",
    "REF_FRAME": "TEME",
    "TIME_SYSTEM": "UTC",
    "MEAN_ELEMENT_THEORY": "SGP4",
    "EPOCH": "2025-11-15T12:22:21.778176",
    "MEAN_MOTION": "1.00284412",
    "ECCENTRICITY": "0.00508314",
    "INCLINATION": "54.2794",
    "RA_OF_ASC_NODE": "164.8948",
    "ARG_OF_PERICENTER": "215.9297",
    "MEAN_ANOMALY": "326.8706",
    "EPHEMERIS_TYPE": "0",
    "CLASSIFICATION_TYPE": "U",
    "NORAD_CAT_ID": "36828",
    "ELEMENT_SET_NO": "999",
    "REV_AT_EPOCH": "5595",
    "BSTAR": "0.00000000000000",
    "MEAN_MOTION_DOT": "-0.00000044",
    "MEAN_MOTION_DDOT": "0.0000000000000",
    "SEMIMAJOR_AXIS": "42161.193",
    "PERIOD": "1435.916",
    "APOAPSIS": "35997.369",
    "PERIAPSIS": "35568.746",
    "OBJECT_TYPE": "PAYLOAD",
    "RCS_SIZE": "LARGE",
    "COUNTRY_CODE": "PRC",
    "LAUNCH_DATE": "2010-07-31",
    "SITE": "XSC",
    "DECAY_DATE": null,
    "FILE": "4883990",
    "GP_ID": "302657607",
    "TLE_LINE0": "0 BEIDOU 5",
    "TLE_LINE1": "1 36828U 10036A   25319.51552984 -.00000044  00000-0  00000-0 0  9995",
    "TLE_LINE2": "2 36828  54.2794 164.8948 0050831 215.9297 326.8706  1.00284412 55950"
}